QIANFAN-25              
1 61558U 24185G   26001.57989939  .00000636  00000+0  38027-3 0  9990
2 61558  88.9790  75.9477 0007807 241.8378 118.2016 14.05927173 72290
QIANFAN-26              
1 61559U 24185H   26001.64722495  .00000230  00000+0  21682-3 0  9990
2 61559  88.9800  77.6060 0003944 325.5634  34.5277 13.77824737 71415
QIANFAN-27              
1 61560U 24185J   26001.58823932  .00001140  00000+0  45976-3 0  9996
2 61560  88.9792  74.6199 0006685 208.5949 151.4879 14.27362626 72992
QIANFAN-28              
1 61561U 24185K   26001.63063051  .00001688  00000+0  67377-3 0  9997
2 61561  88.9810  74.6196 0006214 206.3013 153.7867 14.28082509 73013
QIANFAN-29              
1 61562U 24185L   26001.58775919  .00000256  00000+0  37803-3 0  9996
2 61562  88.9778  79.2635 0009488   4.6570 355.4668 13.51019738 70475
QIANFAN-30              
1 61563U 24185M   26001.57765156  .00000274  00000+0  41170-3 0  9990
2 61563  88.9799  78.7976 0006695 352.5476   7.5574 13.49994905 70744
QIANFAN-31              
1 61564U 24185N   26001.57696591  .00000242  00000+0  31896-3 0  9996
2 61564  88.9782  78.5681 0005847 346.9959  13.1044 13.57975496 70859
QIANFAN-32              
1 61565U 24185P   26001.60921579  .00000287  00000+0  42712-3 0  9996
2 61565  88.9841  78.9344 0009395  18.4216 341.7274 13.50742772 70728
